<?xml version="1.0" encoding="UTF-8"?>
<kml xmlns="http://earth.google.com/kml/2.1">
  
  <Document>
    <Placemark>
  <name>Islas Canarias Border</name>
  <styleUrl>https://observe.minka-sdg.org/assets/index.kml#place</styleUrl>
<MultiGeometry><Polygon><outerBoundaryIs><LinearRing><coordinates>-14.80352045549823,28.78515140547891 -15.352445925335269,28.78391872220044 -15.844465315925831,29.087460223529082 -16.740454699382251,28.885942487561469 -17.60861037205801,29.386648008099598 -18.545718515705371,29.029816393249629 -18.71340019402291,27.909496734935729 -18.140278230686551,27.341891497345781 -18.125447922596202,27.335520785045709 -17.329929299983121,27.465522022650951 -16.59355250141402,27.575122979938879 -16.55762426160971,27.542527576339399 -15.53220326589936,27.47977303304042 -13.795071894253439,27.77918111179412 -12.92401154830462,29.569382562059669 -13.492580820554579,29.787973306955301 -14.80352045549823,28.78515140547891</coordinates></LinearRing></outerBoundaryIs></Polygon></MultiGeometry></Placemark>

  </Document>
</kml>
