<?xml version="1.0" encoding="UTF-8"?>
<kml xmlns="http://earth.google.com/kml/2.1">
  <Document>
    <Placemark>
      <name>Portugal Border</name>
      <styleUrl>https://observe.minka-sdg.org/assets/index.kml#place</styleUrl>
      <Polygon>
        <outerBoundaryIs>
          <LinearRing>
            <coordinates>-8.85171626814688,41.595324295474001 -8.9237,41.852800000000002 -8.635899999999999,42.047899999999998 -8.1988,42.154299999999999 -8.182,42.064999999999998 -8.0844,42.0473 -8.216799999999999,41.913499999999999 -8.164999999999999,41.818100000000001 -8.013999999999999,41.829000000000001 -7.9063,41.927100000000003 -7.8728,41.844900000000003 -7.7008,41.907699999999998 -7.5858,41.881900000000002 -7.6114,41.8292 -7.4525,41.865099999999998 -7.4276,41.807400000000001 -7.1967,41.880000000000003 -7.1414,41.990699999999997 -6.8932,41.939799999999998 -6.8113,41.9925 -6.7,41.933300000000003 -6.5883,41.967500000000001 -6.5155,41.871600000000001 -6.5483,41.685600000000001 -6.3023,41.661799999999999 -6.1891,41.574800000000003 -6.3176,41.3857 -6.4963,41.266100000000002 -6.6483,41.247599999999998 -6.8089,41.036499999999997 -6.9313,41.029400000000003 -6.8019,40.860700000000001 -6.8454,40.565899999999999 -6.7953,40.511400000000002 -6.8497,40.451500000000003 -6.781,40.3643 -7.03,40.186399999999999 -6.8638,40.012 -7.0155,39.670400000000001 -7.5417,39.663699999999999 -7.2943,39.456800000000001 -7.3228,39.381300000000003 -7.2415,39.208300000000001 -7.1345,39.170999999999999 -7.144,39.108600000000003 -6.9627,39.0608 -7.0397,38.8643 -7.2594,38.724200000000003 -7.2436,38.624000000000002 -7.3359,38.4358 -7.0854,38.1693 -6.9315,38.208300000000001 -7.002,38.022399999999998 -7.2624,37.979900000000001 -7.2835,37.868899999999996 -7.5038,37.604799999999997 -7.3754,37.119700000000002 -7.5465,37.103299999999997 -7.8616,36.9133 -8.1881,37.0398 -8.611499999999999,37.0687 -8.934200000000001,36.945500000000003 -9.026999999999999,36.9818 -8.84870730282376,37.456135540409001 -8.8443,37.856900000000003 -8.9405,37.956800000000001 -8.816800000000001,38.130000000000003 -8.8337,38.3245 -8.924899999999999,38.4467 -9.2508,38.372300000000003 -9.2211,38.5426 -9.2782,38.623699999999999 -9.5329,38.690399999999997 -9.3865,39.260300000000001 -9.4541,39.382199999999997 -9.257099999999999,39.459800000000001 -9.1355,39.593000000000004 -8.9192,40.124499999999998 -8.9552,40.206099999999999 -8.8324,40.533299999999997 -8.7889,40.522599999999997 -8.8322,40.533299999999997 -8.8118,40.655000000000001 -8.686,41.023099999999999 -8.85171626814688,41.595324295474001</coordinates>
          </LinearRing>
        </outerBoundaryIs>
      </Polygon>
    </Placemark>
  </Document>
</kml>