<?xml version="1.0" encoding="UTF-8"?>
<kml xmlns="http://earth.google.com/kml/2.1">
  
  <Document>
    <Placemark>
  <name>Spain Border</name>
  <styleUrl>https://observe.minka-sdg.org/assets/index.kml#place</styleUrl>
<MultiGeometry><Polygon><outerBoundaryIs><LinearRing><coordinates>-18.187100000000001,27.7974 -18.046500000000002,27.8187 -17.924399999999999,27.8995 -17.837499999999999,27.824400000000001 -17.964400000000001,27.590499999999999 -18.206199999999999,27.694099999999999 -18.187100000000001,27.7974</coordinates></LinearRing></outerBoundaryIs></Polygon><Polygon><outerBoundaryIs><LinearRing><coordinates>-14.536899999999999,28.023299999999999 -14.549099999999999,28.1038 -14.2691,28.244 -14.061,28.739999999999998 -13.887600000000001,28.807500000000001 -13.932,28.892700000000001 -13.8589,29.060500000000001 -13.581300000000001,29.1844 -13.5686,29.434100000000001 -13.4711,29.454999999999998 -13.436400000000001,29.397500000000001 -13.490399999999999,29.346800000000002 -13.3736,29.217500000000001 -13.4003,29.070599999999999 -13.457100000000001,28.950700000000001 -13.7684,28.7913 -13.800000000000001,28.392099999999999 -13.8786,28.219799999999999 -14.1935,28.119599999999998 -14.321,27.996700000000001 -14.536899999999999,28.023299999999999</coordinates></LinearRing></outerBoundaryIs></Polygon><Polygon><outerBoundaryIs><LinearRing><coordinates>-13.292299999999999,29.304600000000001 -13.311999999999999,29.232299999999999 -13.382899999999999,29.252500000000001 -13.3628,29.320499999999999 -13.292299999999999,29.304600000000001</coordinates></LinearRing></outerBoundaryIs></Polygon><Polygon><outerBoundaryIs><LinearRing><coordinates>-4.3049,35.197099999999999 -4.2985,35.170499999999997 -4.3154,35.190100000000001 -4.3231,35.2179 -4.3049,35.197099999999999</coordinates></LinearRing></outerBoundaryIs></Polygon><Polygon><outerBoundaryIs><LinearRing><coordinates>-2.4214,35.235399999999998 -2.3696,35.177999999999997 -2.4633,35.154499999999999 -2.4951,35.177199999999999 -2.4214,35.235399999999998</coordinates></LinearRing></outerBoundaryIs></Polygon><Polygon><outerBoundaryIs><LinearRing><coordinates>-2.9368,35.280299999999997 -2.954,35.322800000000001 -2.9073,35.346899999999998 -2.8827,35.319499999999998 -2.9368,35.280299999999997</coordinates></LinearRing></outerBoundaryIs></Polygon><Polygon><outerBoundaryIs><LinearRing><coordinates>-3.8776,35.228200000000001 -3.8987,35.2136 -3.8959,35.240699999999997 -3.8648,35.253799999999998 -3.8776,35.228200000000001</coordinates></LinearRing></outerBoundaryIs></Polygon><Polygon><outerBoundaryIs><LinearRing><coordinates>-15.8825,27.9831 -15.7508,28.136399999999998 -15.715299999999999,28.2149 -15.368,28.203299999999999 -15.3079,27.925799999999999 -15.386100000000001,27.7743 -15.606999999999999,27.6845 -15.8256,27.801100000000002 -15.8825,27.9831</coordinates></LinearRing></outerBoundaryIs></Polygon><Polygon><outerBoundaryIs><LinearRing><coordinates>-17.287199999999999,27.977599999999999 -17.369700000000002,28.0503 -17.395600000000002,28.160399999999999 -17.335100000000001,28.2485 -17.175000000000001,28.245100000000001 -17.0549,28.144100000000002 -17.153199999999998,27.987200000000001 -17.287199999999999,27.977599999999999</coordinates></LinearRing></outerBoundaryIs></Polygon><Polygon><outerBoundaryIs><LinearRing><coordinates>-16.0823,28.506 -16.277000000000001,28.370100000000001 -16.390699999999999,28.1128 -16.518599999999999,27.983000000000001 -16.644200000000001,27.953499999999998 -16.736799999999999,27.968399999999999 -16.974,28.335999999999999 -16.852699999999999,28.439499999999999 -16.529299999999999,28.4693 -16.332999999999998,28.6282 -16.104700000000001,28.621600000000001 -16.0823,28.506</coordinates></LinearRing></outerBoundaryIs></Polygon><Polygon><outerBoundaryIs><LinearRing><coordinates>-18.056999999999999,28.732500000000002 -17.9529,28.8963 -17.753599999999999,28.882999999999999 -17.6767,28.759499999999999 -17.7136,28.550000000000001 -17.8309,28.403500000000001 -17.910299999999999,28.445399999999999 -18.056999999999999,28.732500000000002</coordinates></LinearRing></outerBoundaryIs></Polygon><Polygon><outerBoundaryIs><LinearRing><coordinates>0.6811,39.825000000000003 0.6194,39.876600000000003 0.6768,39.949599999999997 0.7377,39.912100000000002 0.6811,39.825000000000003</coordinates></LinearRing></outerBoundaryIs></Polygon><Polygon><outerBoundaryIs><LinearRing><coordinates>1.3699,38.776000000000003 1.2173,38.8157 1.1427,38.840600000000002 1.1366,39.027000000000001 1.527,39.168300000000002 1.6912,39.063099999999999 1.6876,38.997799999999998 1.4771,38.8553 1.5293,38.729599999999998 1.6155,38.713999999999999 1.6109,38.619100000000003 1.36,38.597700000000003 1.3699,38.776000000000003</coordinates></LinearRing></outerBoundaryIs></Polygon><Polygon><outerBoundaryIs><LinearRing><coordinates>3.7986,39.880299999999998 3.7741,39.954000000000001 3.7412,40.022799999999997 3.7994,40.095700000000001 4.0819,40.144399999999997 4.3054,40.0319 4.3776,39.869100000000003 4.2788,39.750799999999998 3.9588,39.885800000000003 3.7986,39.880299999999998</coordinates></LinearRing></outerBoundaryIs></Polygon><Polygon><outerBoundaryIs><LinearRing><coordinates>2.6696,39.505000000000003 2.5739,39.460099999999997 2.4519,39.415500000000002 2.2664,39.537199999999999 2.2627,39.6036 2.9365,39.967599999999997 3.2297,40.009500000000003 3.209700000000001,39.802599999999998 3.362200000000001,39.837400000000002 3.5281,39.7254 3.2729,39.332000000000001 3.0278,39.220300000000002 2.9726,39.0764 2.8902,39.088200000000001 2.8667,39.165399999999998 2.993100000000001,39.256 2.7602,39.320500000000003 2.6696,39.505000000000003</coordinates></LinearRing></outerBoundaryIs></Polygon><Polygon><outerBoundaryIs><LinearRing><coordinates>1.9967,42.486699999999999 2.0051,42.448 1.9569,42.458100000000002 1.9804,42.494399999999999 1.9967,42.486699999999999</coordinates></LinearRing></outerBoundaryIs></Polygon><Polygon><outerBoundaryIs><LinearRing><coordinates>-5.4129,35.923499999999997 -5.4211,35.909999999999997 -5.4379,35.9422 -5.4287,35.965200000000003 -5.4129,35.923499999999997</coordinates></LinearRing></outerBoundaryIs></Polygon><Polygon><outerBoundaryIs><LinearRing><coordinates>-3.0866,35.929600000000001 -3.046600000000001,35.989899999999999 -2.9807,35.950299999999999 -3.0256,35.888300000000001 -3.0866,35.929600000000001</coordinates></LinearRing></outerBoundaryIs></Polygon><Polygon><outerBoundaryIs><LinearRing><coordinates>-5.3024,35.8354 -5.3807,35.899500000000003 -5.3618,35.968000000000004 -5.2282,35.897300000000001 -5.3024,35.8354</coordinates></LinearRing></outerBoundaryIs></Polygon><Polygon><outerBoundaryIs><LinearRing><coordinates>-3.5863,43.564900000000002 -3.14575653035697,43.403121499085898 -2.7542,43.506700000000002 -2.2916,43.345500000000001 -1.7827,43.442599999999999 -1.7289,43.296100000000003 -1.3842,43.2532 -1.4734,43.086599999999997 -1.4414,43.046199999999999 -1.3537,43.027999999999999 -1.3321,43.107900000000001 -1.2705,43.118299999999998 -1.3085,43.069200000000002 -1.1414,43.007599999999996 -0.7528,42.966999999999999 -0.5677,42.780900000000003 -0.313,42.847499999999997 -0.0146,42.684800000000003 0.176,42.735599999999998 0.295,42.673400000000001 0.3604,42.723700000000001 0.6687,42.688899999999997 0.6449,42.783099999999997 0.7082,42.8613 1.078,42.787700000000001 1.1707,42.708199999999998 1.3574,42.7194 1.442,42.599299999999999 1.4566,42.435899999999997 1.7263,42.504899999999999 1.9338,42.4542 2.0152,42.3474 2.2571,42.438499999999998 2.5333,42.333500000000001 2.9471,42.4818 3.3602,42.358600000000003 3.3708,42.302100000000003 3.2931,42.195999999999998 3.165,42.194200000000002 3.279,42.0503 3.2164,41.820700000000002 2.2939,41.415700000000001 2.1286,41.241799999999998 0.992,40.985100000000003 0.8129,40.821199999999997 0.9284,40.721499999999999 0.8783,40.639800000000001 0.6869,40.513199999999998 0.5741,40.527700000000003 0.4468,40.325299999999999 0.0873,39.997900000000001 -0.2684,39.505400000000002 -0.2707,39.395200000000003 -0.1463,39.0655 -0.0147,38.922499999999999 0.2288,38.843800000000002 0.2847,38.732500000000002 -0.1077,38.455599999999997 -0.2719,38.440199999999997 -0.37,38.314300000000003 -0.4622,38.295099999999998 -0.4099,38.139499999999998 -0.571,38.141199999999998 -0.6027,37.9771 -0.7149,37.849400000000003 -0.6179,37.6158 -0.9147,37.503999999999998 -1.311,37.511400000000002 -1.6421,37.314599999999999 -1.7595,37.194699999999997 -1.8566,36.916699999999999 -2.11,36.683799999999998 -2.202,36.6721 -2.3565,36.7881 -2.5342,36.770000000000003 -2.699,36.632399999999997 -3.1184,36.701900000000002 -3.4845,36.646900000000002 -3.749,36.671100000000003 -3.7865,36.7239 -4.3936,36.667400000000001 -4.6184,36.460700000000003 -4.919,36.4514 -5.1509,36.370699999999999 -5.288,36.1511 -5.3988,36.142600000000002 -5.3958,36.034599999999998 -5.6127,35.949599999999997 -5.928799999999999,36.132599999999996 -6.0639,36.140000000000001 -6.26,36.346299999999999 -6.35,36.566499999999998 -6.5186,36.7136 -6.4435,36.794800000000002 -6.5496,36.935699999999997 -7.0499,37.157800000000002 -7.3719,37.122700000000002 -7.522700000000001,37.553100000000001 -7.2624,37.979900000000001 -7.002,38.022399999999998 -6.9315,38.208300000000001 -7.0854,38.1693 -7.3359,38.4358 -7.2436,38.624000000000002 -7.259400000000001,38.724200000000003 -7.039199999999999,38.864800000000002 -6.9594,39.054499999999997 -7.144,39.108600000000003 -7.134499999999999,39.170999999999999 -7.241499999999999,39.208300000000001 -7.3228,39.381300000000003 -7.2943,39.456800000000001 -7.5417,39.663699999999999 -7.0155,39.670400000000001 -6.863800000000001,40.012 -7.03,40.186399999999999 -6.780999999999999,40.3643 -6.849700000000001,40.451500000000003 -6.7953,40.511400000000002 -6.845400000000001,40.565899999999999 -6.8019,40.860700000000001 -6.931299999999999,41.029400000000003 -6.808900000000001,41.036499999999997 -6.648300000000001,41.247599999999998 -6.4963,41.266100000000002 -6.3176,41.3857 -6.1891,41.574800000000003 -6.3023,41.661799999999999 -6.5483,41.685600000000001 -6.515499999999999,41.871600000000001 -6.588300000000001,41.967500000000001 -6.700000000000001,41.933300000000003 -6.8113,41.9925 -6.8932,41.939799999999998 -7.1414,41.990699999999997 -7.1967,41.880000000000003 -7.4276,41.807400000000001 -7.4525,41.865099999999998 -7.6114,41.8292 -7.5858,41.881900000000002 -7.7008,41.907699999999998 -7.8728,41.844900000000003 -7.9063,41.927100000000003 -8.013999999999999,41.829000000000001 -8.164999999999999,41.818100000000001 -8.216799999999999,41.913499999999999 -8.0844,42.0473 -8.182,42.064999999999998 -8.198700000000001,42.154299999999999 -8.635899999999999,42.047899999999998 -8.9217,41.853099999999998 -8.9724,42.423999999999999 -9.1244,42.494300000000003 -9.1044,42.6877 -9.1859,42.703800000000001 -9.2319,42.854399999999998 -9.315,42.851399999999998 -9.341900000000001,43.0839 -9.201499999999999,43.233699999999999 -9.0764,43.238799999999998 -8.866,43.4069 -8.716200000000001,43.341000000000001 -8.543799999999999,43.366700000000002 -8.3863,43.438400000000001 -8.344799999999999,43.6098 -7.9236,43.815800000000003 -7.8132,43.778799999999997 -7.6835,43.841200000000001 -7.5791,43.768500000000003 -7.4127,43.762 -7.2187,43.618200000000002 -6.085099999999999,43.615299999999998 -5.8357,43.711100000000002 -5.6447,43.601100000000002 -4.5126,43.426900000000003 -3.5863,43.564900000000002</coordinates></LinearRing></outerBoundaryIs></Polygon></MultiGeometry></Placemark>

  </Document>
</kml>
