<?xml version="1.0" encoding="utf-8" ?>
<kml xmlns="http://www.opengis.net/kml/2.2">
<Document id="root_doc">
<Folder><name>SELECT</name>
  <Placemark>
	<Style><LineStyle><color>ff0000ff</color></LineStyle><PolyStyle><fill>0</fill></PolyStyle></Style>
      <MultiGeometry><Polygon><outerBoundaryIs><LinearRing><coordinates>-7.410133,37.146954 -7.432703,37.156028 -7.463043,37.157427 -7.533993,37.139271 -7.595004,37.106991 -7.603879,37.096822 -7.702998,37.04298 -7.708148,37.040879 -7.718182,37.037992 -7.720672,37.035014 -7.760277,37.011929 -7.77692,36.998659 -7.787155,36.994452 -7.788416,36.992986 -7.834809,36.967255 -7.835321,36.967165 -7.835704,36.966738 -7.845807,36.961615 -7.84858,36.956409 -7.859508,36.947043 -7.865346,36.946521 -7.885685,36.9418 -7.898866,36.942001 -7.927515,36.949725 -7.930018,36.950542 -7.963833,36.963609 -7.96904,36.966438 -7.975073,36.970874 -7.977917,36.9715 -8.040525,37.010771 -8.040535,37.010772 -8.100305,37.045103 -8.129652,37.052776 -8.133862,37.052784 -8.18497,37.071341 -8.230818,37.064389 -8.24052,37.064643 -8.251952,37.067032 -8.289242,37.056257 -8.28955,37.056268 -8.289726,37.056146 -8.298288,37.056597 -8.306326,37.056898 -8.306467,37.057027 -8.306785,37.057044 -8.368845,37.082078 -8.43108,37.067745 -8.443988,37.067878 -8.533888,37.09096 -8.53562,37.092067 -8.539491,37.092005 -8.558482,37.099261 -8.57554,37.09727 -8.595657,37.103343 -8.615625,37.102047 -8.616316,37.101683 -8.637766,37.098369 -8.644465,37.091784 -8.645156,37.078607 -8.653599,37.065008 -8.671659,37.060977 -8.721496,37.067382 -8.734152,37.06114 -8.736321,37.060853 -8.737834,37.059697 -8.782741,37.045417 -8.790153,37.04415 -8.830609,37.042818 -8.848733,37.028894 -8.864711,37.023744 -8.881131,37.023842 -8.885127,37.017637 -8.885149,37.017622 -8.885165,37.017489 -8.895327,37.010493 -8.895321,37.010165 -8.905096,37.00029 -8.906354,36.999661 -8.90824,36.99964 -8.909268,36.996852 -8.920698,36.985601 -8.929115,36.985028 -8.942667,36.975884 -8.961255,36.978461 -8.970312,36.991728 -8.971039,37.001439 -8.974081,37.004703 -8.976416,37.002251 -8.995997,37.001827 -9.00673,37.005824 -9.01471171575967,37.0144921407223 -8.9952365133725,37.0663045861852 -8.98331,37.077237 -8.980502,37.095699 -8.974959,37.105684 -8.94293,37.135309 -8.941881,37.137382 -8.94204,37.137383 -8.941996,37.138327 -8.94098,37.140236 -8.940616,37.143264 -8.939853,37.144567 -8.938868,37.144209 -8.935504,37.150535 -8.935152,37.150669 -8.927822,37.165138 -8.93915,37.189545 -8.93757,37.204881 -8.921984,37.214052 -8.916178,37.215005 -8.91294,37.218535 -8.883438,37.270529 -8.885441,37.279479 -8.892873,37.283143 -8.897953,37.293366 -8.900027,37.319147 -8.895241,37.331634 -8.867262,37.360789 -8.866563,37.361102 -8.866031,37.363727 -8.836575,37.405001 -8.820369,37.446398 -8.820622,37.47407 -8.819864,37.475588 -8.820336,37.477176 -8.809048,37.533708 -8.813632,37.552293 -8.83895,37.589157 -8.8411,37.601825 -8.81667,37.686736 -8.81876,37.701631 -8.816354,37.712037 -8.813851,37.715946 -8.81671,37.724517 -8.825224,37.729229 -8.834255,37.747017 -8.816741,37.822788 -8.818233,37.823658 -8.819536,37.825769 -8.820776,37.839078 -8.814758,37.845109 -8.827537,37.912693 -8.832575,37.915175 -8.841536,37.913165 -8.851317,37.90964 -8.867949,37.915343 -8.872488,37.919314 -8.880212,37.923993 -8.880919,37.925117 -8.887553,37.922663 -8.903054,37.926518 -8.910982,37.937765 -8.912557,37.946883 -8.910038,37.957992 -8.850977,38.046231 -8.82583689348569,38.1173468880217 -8.8168,38.13 -8.81770044637877,38.1403631254835 -8.804907,38.176553 -8.799777,38.270744 -8.822508,38.36696 -8.851214,38.415958 -8.904886,38.459155 -8.909654,38.455504 -8.927759,38.455994 -8.929061,38.456488 -8.938777,38.463713 -8.941563,38.467665 -8.941814,38.468246 -8.965565,38.463596 -8.970463,38.456475 -8.978764,38.449512 -9.017027,38.430652 -9.031924,38.427961 -9.036247,38.428351 -9.051467,38.420011 -9.070027,38.4172 -9.102059,38.423286 -9.121827,38.413879 -9.13436,38.411231 -9.159332,38.411693 -9.17962,38.397365 -9.180757,38.397042 -9.181299,38.396337 -9.188553,38.394825 -9.196201,38.392649 -9.197197,38.393023 -9.198303,38.392792 -9.226548,38.395801 -9.243139,38.404896 -9.24337814677724,38.4148569563581 -9.2417878622966,38.4239756582791 -9.216583,38.466275 -9.206385,38.517504 -9.205989,38.519495 -9.216597,38.561347 -9.24333,38.612476 -9.281729,38.651291 -9.286122,38.665171 -9.276154,38.677442 -9.272939,38.679182 -9.275143,38.679423 -9.310797,38.658459 -9.335498,38.656883 -9.397759,38.683333 -9.401807,38.683081 -9.403726,38.680488 -9.415297,38.672568 -9.43042,38.671919 -9.484036,38.684223 -9.495129,38.690045 -9.504607,38.69934 -9.508536,38.715625 -9.497954,38.74349 -9.50632,38.749169 -9.512344,38.755763 -9.51486462312963,38.7606073857816 -9.49916602846876,38.8217182402708 -9.494446,38.828896 -9.439248,38.945905 -9.450715,38.998531 -9.45066,39.00483 -9.438837,39.05534 -9.4390255491721,39.0558306661668 -9.42536358035574,39.1090134259239 -9.409992,39.132854 -9.409942,39.132931 -9.379524,39.180039 -9.362709,39.229448 -9.359386,39.269657 -9.368139,39.302128 -9.379062,39.31112 -9.385141,39.321795 -9.386145,39.331412 -9.41949,39.343744 -9.431808,39.355936 -9.426947,39.371276 -9.416842,39.380935 -9.396875,39.387753 -9.395178,39.387663 -9.394343,39.389198 -9.374738,39.393651 -9.361863,39.386351 -9.361199,39.391878 -9.359986,39.39327 -9.345629,39.400972 -9.328659,39.398958 -9.325432,39.395598 -9.317416,39.398472 -9.245707,39.446872 -9.214321,39.486395 -9.213133,39.487074 -9.212739,39.488152 -9.18741,39.513399 -9.179165,39.518637 -9.166837,39.523402 -9.166739,39.527771 -9.154819,39.537521 -9.146339,39.540643 -9.101677,39.594146 -9.108088,39.608473 -9.108581,39.618955 -9.072684,39.724693 -9.071696,39.725714 -9.071717,39.726856 -8.990598,39.885711 -8.900503,40.090957 -8.889401,40.127655 -8.899012,40.134073 -8.901514,40.145949 -8.900222,40.151392 -8.905385,40.15606 -8.920116,40.163692 -8.929977,40.176043 -8.931778,40.186912 -8.930677,40.195092 -8.868021,40.335247 -8.80700518614298,40.52705345958 -8.7889,40.5226 -8.80699911941461,40.5270725306637 -8.776696,40.622332 -8.776053,40.625899 -8.776161,40.625905 -8.787699,40.63564 -8.787202,40.648912 -8.767857,40.683583 -8.683126,40.932004 -8.668933,41.02028 -8.681558,41.063738 -8.68132,41.064751 -8.682067,41.06578 -8.691343,41.131777 -8.693797,41.135458 -8.697959,41.139087 -8.707453,41.155702 -8.720441,41.157044 -8.72640241833982,41.1626110186132 -8.73408630694884,41.1891437651864 -8.732557,41.192016 -8.73956979520429,41.2080784493837 -8.75152810100278,41.2493709138298 -8.748921,41.257842 -8.766039,41.324351 -8.769426,41.326208 -8.774861,41.332181 -8.77624664595843,41.3347249477491 -8.80646597017736,41.4390733723441 -8.800058,41.467364 -8.811674,41.513418 -8.811485,41.514099 -8.81203,41.514831 -8.814906,41.533951 -8.817175,41.538287 -8.83058,41.599501 -8.84407,41.62078 -8.846322,41.627404 -8.848569,41.657136 -8.852551,41.656796 -8.867003,41.667564 -8.87914444968654,41.6934310507642 -8.90023348183289,41.7688635584971 -8.896087,41.779958 -8.89922,41.794668 -8.895938,41.806984 -8.891446,41.812501 -8.899392,41.835292 -8.899024,41.845285 -8.896438,41.851382 -8.900354,41.859982 -8.899771,41.862902 -8.897426,41.865427 -8.90016619793217,41.8687535954949 -8.79822917796952,41.9378568359213 -8.775155,41.949103 -8.77393323300087,41.954327089095 -8.72018468629414,41.990763299875 -8.71099,41.987079 -8.705065,41.975782 -8.710248,41.964124 -8.719232,41.955501 -8.719945,41.955194 -8.720148,41.954739 -8.721371,41.953672 -8.721371,41.952573 -8.721701,41.951975 -8.721282,41.951226 -8.721285,41.943051 -8.723613,41.938827 -8.724192,41.934306 -8.736144,41.91733 -8.745802,41.909864 -8.800343,41.886588 -8.806974,41.879256 -8.804518,41.870647 -8.813063,41.85938 -8.82937,41.855083 -8.830564,41.85545 -8.840885,41.849235 -8.847104,41.849197 -8.851009,41.840009 -8.842252,41.814831 -8.845074,41.80083 -8.850274,41.794452 -8.847722,41.782423 -8.848329,41.77472 -8.856165,41.753799 -8.834772,41.708174 -8.834221,41.70822 -8.831804,41.709644 -8.822048,41.71313 -8.801921,41.716545 -8.788627,41.715355 -8.751103,41.71865 -8.718063,41.729008 -8.700706,41.729395 -8.687762,41.720931 -8.685976,41.708031 -8.696275,41.697417 -8.719583,41.685966 -8.727506,41.683425 -8.738775,41.681469 -8.738833,41.681433 -8.783378,41.671106 -8.794157,41.670496 -8.798065,41.670943 -8.799948,41.670844 -8.801556,41.670974 -8.801425,41.670763 -8.798647,41.633647 -8.785727,41.613243 -8.78376,41.608516 -8.77068,41.548588 -8.770554,41.548445 -8.769709,41.5478 -8.769173,41.546886 -8.755827,41.531811 -8.755359,41.531669 -8.75322,41.531882 -8.75066,41.533766 -8.732319,41.533757 -8.71551,41.528467 -8.710914,41.530887 -8.707457,41.533413 -8.690651,41.538636 -8.674004,41.533632 -8.666971,41.521244 -8.67354,41.508507 -8.67553,41.506898 -8.67738,41.50421 -8.683553,41.498454 -8.689032,41.495041 -8.702394,41.490878 -8.710085,41.490349 -8.710908,41.489396 -8.71239,41.488632 -8.71862,41.48788 -8.716007,41.479961 -8.716232,41.478478 -8.727601,41.464955 -8.748591,41.46321 -8.750073,41.463614 -8.752179,41.465019 -8.763795,41.413918 -8.763063,41.412049 -8.75088,41.410898 -8.749532,41.410359 -8.738391,41.400438 -8.739178,41.389206 -8.73884,41.389131 -8.739252,41.388149 -8.73931,41.387317 -8.741431,41.385729 -8.744333,41.382822 -8.73946,41.377952 -8.738745,41.378418 -8.720402,41.382824 -8.719818,41.382779 -8.704423,41.376723 -8.698861,41.364297 -8.702968,41.357434 -8.703228,41.352104 -8.708172,41.34375 -8.711691,41.341444 -8.713468,41.338377 -8.719656,41.336223 -8.720153,41.335898 -8.701097,41.261647 -8.701295,41.254133 -8.704539,41.243618 -8.690614,41.211671 -8.678509,41.21317 -8.664561,41.206701 -8.659721,41.194844 -8.666307,41.183294 -8.669462,41.180755 -8.660603,41.165239 -8.638602,41.166217 -8.626561,41.164327 -8.610864,41.15829 -8.58371,41.161016 -8.57654,41.159612 -8.568101,41.158923 -8.560599,41.155554 -8.549401,41.142359 -8.547205,41.127311 -8.551568,41.114726 -8.565893,41.107426 -8.582786,41.109179 -8.593532,41.11908 -8.595078,41.122687 -8.612674,41.119977 -8.628461,41.121676 -8.639319,41.126037 -8.64233,41.124531 -8.634952,41.071734 -8.621625,41.025741 -8.621255,41.019707 -8.627551,40.980742 -8.622113,40.979251 -8.616225,40.96393 -8.6169,40.9611 -8.621695,40.954971 -8.621868,40.952798 -8.624545,40.951326 -8.625555,40.950035 -8.628062,40.949392 -8.633059,40.946645 -8.636202,40.927183 -8.636798,40.924809 -8.652546,40.878849 -8.651575,40.879022 -8.636426,40.871963 -8.632351,40.858753 -8.632376,40.858633 -8.631782,40.858562 -8.625454,40.849876 -8.61789,40.845879 -8.616453,40.844172 -8.616101,40.842777 -8.611031,40.840963 -8.604944,40.828527 -8.605874,40.826867 -8.60246,40.821375 -8.601519,40.807879 -8.613204,40.797486 -8.61562,40.797291 -8.615894,40.797138 -8.617168,40.788019 -8.621262,40.785021 -8.621852,40.782647 -8.623868,40.780758 -8.623344,40.775702 -8.62735,40.770974 -8.62735,40.770409 -8.629069,40.768944 -8.629474,40.768467 -8.630069,40.76647 -8.631702,40.765836 -8.631715,40.765821 -8.631809,40.765795 -8.632711,40.765445 -8.632965,40.764964 -8.634254,40.764528 -8.635098,40.763809 -8.638865,40.753661 -8.651703,40.748818 -8.639597,40.744456 -8.632302,40.749216 -8.616887,40.753658 -8.60159,40.749478 -8.591663,40.743054 -8.589837,40.740048 -8.578379,40.735288 -8.567496,40.725229 -8.568667,40.712066 -8.57537,40.707152 -8.565045,40.701269 -8.556179,40.690662 -8.551182,40.689833 -8.550284,40.689474 -8.547066,40.687915 -8.546213,40.68742 -8.537574,40.67685 -8.540228,40.664394 -8.550472,40.65769 -8.550858,40.654053 -8.551082,40.653469 -8.56466,40.641712 -8.584953,40.642145 -8.596962,40.654449 -8.597174,40.655297 -8.597391,40.655494 -8.598065,40.657066 -8.599088,40.661973 -8.599184,40.661967 -8.59932,40.663809 -8.598496,40.665695 -8.600685,40.669507 -8.601096,40.669808 -8.605023,40.676157 -8.613949,40.675244 -8.613561,40.667557 -8.616769,40.66468 -8.616636,40.655791 -8.62679,40.640609 -8.628152,40.640462 -8.636357,40.635661 -8.637198,40.634661 -8.640796,40.621797 -8.646525,40.615657 -8.648072,40.613081 -8.650712,40.611169 -8.651153,40.610697 -8.65379,40.604474 -8.653792,40.604473 -8.653539,40.602498 -8.656193,40.600252 -8.65622,40.600161 -8.656407,40.600071 -8.662548,40.594874 -8.64885,40.555476 -8.649626,40.549969 -8.649092,40.550027 -8.648957,40.549174 -8.649379,40.548015 -8.648935,40.546668 -8.649115,40.54559 -8.650228,40.54568 -8.650233,40.545667 -8.650661,40.542633 -8.651509,40.542037 -8.651677,40.541697 -8.653813,40.535823 -8.66,40.53305 -8.663941,40.529592 -8.668938,40.529042 -8.669512,40.528785 -8.670148,40.528909 -8.68051,40.527768 -8.694269,40.534759 -8.698328,40.547064 -8.697935,40.549652 -8.702654,40.556569 -8.704805,40.561204 -8.705894,40.565282 -8.70601,40.56537 -8.706258,40.566646 -8.707005,40.569442 -8.707456,40.571129 -8.712352,40.589447 -8.712899,40.589563 -8.714202,40.590506 -8.715587,40.594955 -8.716655,40.596149 -8.722531,40.588001 -8.722928,40.58792 -8.722766,40.5869 -8.733691,40.556853 -8.738874,40.54956 -8.743627,40.545442 -8.74232,40.538485 -8.745418,40.52664 -8.755976,40.512942 -8.765146,40.507069 -8.77882,40.464195 -8.772526,40.460741 -8.772228,40.456776 -8.770641,40.458283 -8.754984,40.460885 -8.750087,40.46039 -8.735314,40.454117 -8.733922,40.452814 -8.729697,40.436495 -8.744873,40.424228 -8.749678,40.422925 -8.767358,40.423509 -8.779228,40.433375 -8.780014,40.435016 -8.787379,40.429174 -8.789993,40.429134 -8.822604,40.326647 -8.823225,40.325022 -8.884133,40.189008 -8.875951,40.184767 -8.874142,40.182626 -8.871263,40.181516 -8.85716,40.168757 -8.856129,40.165753 -8.854573,40.165848 -8.816025,40.160996 -8.809101,40.159221 -8.800897,40.155922 -8.798183,40.156301 -8.797285,40.156122 -8.790579,40.153849 -8.788782,40.15295 -8.783487,40.145668 -8.783103,40.145376 -8.781208,40.142665 -8.768457,40.153428 -8.766791,40.154076 -8.768253,40.161272 -8.760607,40.171738 -8.746258,40.176416 -8.745404,40.176461 -8.730678,40.173364 -8.726897,40.16932 -8.724049,40.169726 -8.71319,40.164152 -8.712637,40.164089 -8.712212,40.16365 -8.709636,40.162328 -8.709143,40.160475 -8.702236,40.153328 -8.704688,40.139862 -8.718601,40.131299 -8.735553,40.127313 -8.755829,40.103193 -8.765465,40.096593 -8.773997,40.09336 -8.788359,40.093429 -8.793998,40.087518 -8.811124,40.084959 -8.814491,40.085453 -8.827615,40.092651 -8.83711,40.095337 -8.838626,40.097702 -8.84201,40.097867 -8.842035,40.097786 -8.842759,40.097904 -8.844026,40.097966 -8.849044,40.097683 -8.850374,40.098438 -8.855156,40.082666 -8.855797,40.080937 -8.942085,39.884711 -8.94004,39.880714 -8.94629,39.868335 -8.95053,39.866684 -9.028102,39.714971 -9.061808,39.615898 -9.050103,39.589689 -9.050557,39.577017 -9.061624,39.567497 -9.069864,39.566646 -9.111263,39.517081 -9.116499,39.513519 -9.11561,39.511695 -9.116296,39.49774 -9.121457,39.493989 -9.117542,39.49025 -9.116286,39.487016 -9.118145,39.473154 -9.124376,39.469151 -9.113263,39.463887 -9.108468,39.452189 -9.114558,39.44065 -9.114827,39.440417 -9.11517,39.438951 -9.116023,39.437828 -9.136486,39.428681 -9.138192,39.428681 -9.155319,39.434729 -9.160585,39.448822 -9.160406,39.44981 -9.153064,39.460755 -9.151607,39.461254 -9.148958,39.464833 -9.148116,39.465354 -9.153426,39.465933 -9.163321,39.479204 -9.163341,39.479413 -9.175694,39.467105 -9.198562,39.438337 -9.189557,39.431638 -9.184484,39.421167 -9.178217,39.420193 -9.163896,39.412741 -9.160541,39.399496 -9.170043,39.387943 -9.18703,39.384607 -9.188984,39.384818 -9.212768,39.371198 -9.227915,39.367617 -9.24227,39.372337 -9.249223,39.383186 -9.245755,39.394559 -9.246449,39.395351 -9.245771,39.39966 -9.290133,39.369713 -9.29582,39.366855 -9.316514,39.359436 -9.315737,39.358965 -9.312521,39.347146 -9.312881,39.34508 -9.319607,39.334505 -9.333132,39.329194 -9.334344,39.329059 -9.337166,39.329791 -9.329786,39.323711 -9.324129,39.315265 -9.313452,39.275557 -9.314066,39.273015 -9.313014,39.270621 -9.316713,39.226245 -9.317453,39.222729 -9.335526,39.169732 -9.337277,39.166145 -9.368835,39.117322 -9.368884,39.117245 -9.397233,39.073327 -9.39305,39.062417 -9.392475,39.054 -9.394204,39.046638 -9.393163,39.045329 -9.395696,39.032913 -9.397448,39.030443 -9.398111,39.029999 -9.404598,39.002364 -9.392812,38.948098 -9.39283,38.947956 -9.38735,38.940371 -9.392121,38.926998 -9.401563,38.922642 -9.451751,38.816387 -9.452775,38.815503 -9.452924,38.814212 -9.475125,38.780491 -9.471784,38.774062 -9.45648,38.763667 -9.44977,38.745106 -9.460566,38.716738 -9.432588,38.710319 -9.416502,38.718328 -9.393499,38.719766 -9.380999,38.717713 -9.325683,38.694219 -9.294214,38.712721 -9.277079,38.71624 -9.216508,38.709614 -9.199479,38.712847 -9.199287,38.712824 -9.199171,38.712888 -9.143557,38.72298 -9.125054,38.736853 -9.113483,38.761907 -9.113099,38.781132 -9.12251,38.784632 -9.123813,38.785664 -9.126765,38.788571 -9.127529,38.789514 -9.130707,38.802068 -9.129711,38.803416 -9.131831,38.815686 -9.120222,38.827068 -9.104554,38.828177 -9.104438,38.82973 -9.094189,38.846541 -9.095772,38.848968 -9.091296,38.861644 -9.089994,38.863037 -9.072518,38.870238 -9.056536,38.87888 -9.039309,38.881878 -9.02472,38.874505 -9.024666,38.874295 -9.023218,38.873691 -9.022802,38.872151 -9.016398,38.868701 -8.985097,38.832718 -8.984708,38.831209 -8.983386,38.83029 -8.981018,38.826385 -8.955234,38.826092 -8.936195,38.817366 -8.924744,38.801777 -8.924682,38.801606 -8.911011,38.805567 -8.908181,38.805342 -8.891658,38.797416 -8.891254,38.796922 -8.887841,38.785308 -8.894479,38.774385 -8.897852,38.773056 -8.898106,38.770375 -8.898136,38.76845 -8.894715,38.767214 -8.884918,38.760279 -8.881822,38.750128 -8.882228,38.744872 -8.882243,38.744844 -8.881972,38.744599 -8.876523,38.731964 -8.883772,38.719641 -8.899696,38.71446 -8.907779,38.71437 -8.910539,38.715375 -8.914699,38.714921 -8.919585,38.71768 -8.927958,38.717206 -8.940912,38.726135 -8.942215,38.728246 -8.942681,38.73499 -8.947574,38.737945 -8.948338,38.738888 -8.94903,38.742003 -8.95407,38.740093 -8.954441,38.737592 -8.955115,38.73638 -8.958293,38.734076 -8.959207,38.731321 -8.965508,38.728844 -8.96918,38.726181 -8.971796,38.726372 -8.974141,38.72545 -8.975879,38.724361 -8.976981,38.724106 -8.97734,38.723695 -8.980028,38.719094 -8.980077,38.719053 -8.980168,38.718226 -8.980187,38.718205 -8.973318,38.717426 -8.972365,38.717579 -8.970209,38.717579 -8.966457,38.716648 -8.955234,38.715375 -8.937028,38.702904 -8.935008,38.697379 -8.936456,38.684454 -8.948484,38.675389 -8.955994,38.675138 -8.958604,38.668839 -8.975456,38.662685 -8.972947,38.656784 -8.97527,38.64146 -8.991683,38.6328 -9.010281,38.637083 -9.018609,38.643001 -9.029891,38.638255 -9.039694,38.639818 -9.038542,38.636435 -9.032912,38.630301 -9.032598,38.628998 -9.033311,38.621068 -9.02925,38.609128 -9.030951,38.596281 -9.04304,38.587371 -9.059369,38.586929 -9.071637,38.595179 -9.086204,38.616654 -9.088931,38.6108 -9.102344,38.604392 -9.117635,38.606085 -9.127803,38.615104 -9.131057,38.621648 -9.137546,38.622789 -9.147949,38.622618 -9.150059,38.623201 -9.161789,38.630788 -9.162045,38.631865 -9.162102,38.631895 -9.165787,38.644447 -9.165159,38.64795 -9.161624,38.652625 -9.163232,38.6532 -9.168663,38.664047 -9.189047,38.659641 -9.191578,38.659888 -9.193861,38.659022 -9.22883,38.65733 -9.205058,38.633278 -9.202059,38.629205 -9.173461,38.574446 -9.173475,38.572573 -9.17212,38.571 -9.164444,38.540649 -9.163664,38.540955 -9.157318,38.540093 -9.149621,38.54455 -9.134447,38.544125 -9.131437,38.543182 -9.119266,38.533798 -9.119071,38.520194 -9.122235,38.517504 -9.125214,38.514972 -9.134567,38.506683 -9.16491,38.494245 -9.171999,38.458749 -9.173869,38.456297 -9.17404,38.453746 -9.179866,38.443986 -9.166219,38.447995 -9.138787,38.447491 -9.116671,38.458016 -9.099396,38.460174 -9.06822,38.454254 -9.054351,38.461854 -9.038499,38.465042 -9.033543,38.464595 -9.007505,38.477432 -9.000613,38.487461 -8.985544,38.49669 -8.951358,38.503386 -8.947837,38.51176 -8.942109,38.517504 -8.937906,38.521721 -8.910414,38.535288 -8.900525,38.537996 -8.885699,38.539255 -8.873234,38.537509 -8.849934,38.528348 -8.841407,38.532827 -8.839879,38.533007 -8.836768,38.532821 -8.834606,38.534854 -8.825277,38.535051 -8.824284,38.538372 -8.824526,38.539609 -8.824497,38.539696 -8.825536,38.542434 -8.822392,38.548722 -8.822337,38.549505 -8.815565,38.561486 -8.800474,38.566984 -8.79734,38.566214 -8.79714,38.566362 -8.793375,38.565742 -8.787182,38.568156 -8.774286,38.564592 -8.773601,38.565664 -8.770652,38.567627 -8.768858,38.570959 -8.765216,38.57232 -8.763334,38.57456 -8.762876,38.574815 -8.762526,38.57501 -8.762109,38.575199 -8.761881,38.575412 -8.761323,38.575641 -8.760273,38.577557 -8.757893,38.579399 -8.757028,38.579648 -8.755923,38.582491 -8.743273,38.589463 -8.740263,38.590137 -8.736958,38.589877 -8.731949,38.59146 -8.730019,38.590847 -8.729876,38.590899 -8.72545,38.589648 -8.708009,38.588159 -8.697915,38.574534 -8.705645,38.559632 -8.709418,38.556938 -8.711124,38.556416 -8.711778,38.555505 -8.714257,38.554129 -8.712773,38.545769 -8.713635,38.54012 -8.711768,38.539456 -8.707343,38.5385 -8.706944,38.538005 -8.690193,38.539154 -8.676885,38.528271 -8.678528,38.517504 -8.679214,38.513009 -8.679529,38.512605 -8.684865,38.507818 -8.686348,38.506875 -8.687696,38.50649 -8.683764,38.495564 -8.686829,38.490146 -8.685927,38.483583 -8.686152,38.483089 -8.694473,38.474312 -8.70189,38.472286 -8.700558,38.46032 -8.699363,38.460372 -8.682268,38.455213 -8.657386,38.435332 -8.65097,38.437993 -8.650376,38.438478 -8.648244,38.439124 -8.640263,38.442433 -8.633029,38.442388 -8.618653,38.438148 -8.611834,38.428413 -8.584709,38.430284 -8.583448,38.430371 -8.582166,38.430459 -8.568072,38.432154 -8.567219,38.431487 -8.56133,38.431891 -8.559375,38.43309 -8.543676,38.43266 -8.539947,38.431447 -8.52791,38.421889 -8.527921,38.419989 -8.525835,38.418414 -8.519006,38.406481 -8.518025,38.389722 -8.504917,38.38883 -8.49265,38.384875 -8.492001,38.384082 -8.475611,38.382432 -8.465257,38.371717 -8.464494,38.369426 -8.464473,38.369338 -8.463076,38.368277 -8.461894,38.355607 -8.462209,38.354754 -8.470459,38.345199 -8.472076,38.344211 -8.479666,38.341118 -8.480609,38.340894 -8.496696,38.341766 -8.498689,38.343411 -8.502381,38.342112 -8.516714,38.345114 -8.517266,38.345132 -8.522251,38.348051 -8.52545,38.35359 -8.544536,38.355022 -8.550303,38.357474 -8.556073,38.358658 -8.557371,38.360478 -8.559755,38.361492 -8.561414,38.366148 -8.564567,38.370569 -8.567222,38.388648 -8.569138,38.388596 -8.581484,38.392009 -8.587014,38.3914 -8.596947,38.384328 -8.606749,38.384359 -8.608382,38.383907 -8.609514,38.384368 -8.613613,38.38438 -8.617768,38.387534 -8.61909,38.387857 -8.645805,38.384898 -8.657616,38.386079 -8.658682,38.38643 -8.661269,38.385268 -8.678756,38.389822 -8.684101,38.393728 -8.68488,38.395045 -8.699843,38.39996 -8.73622,38.402619 -8.737967,38.401348 -8.766348,38.392906 -8.773089,38.393243 -8.772362,38.392113 -8.770825,38.379022 -8.777136,38.372373 -8.754495,38.276263 -8.754135,38.272186 -8.759558,38.17382 -8.760401,38.169659 -8.767133,38.150675 -8.75867,38.145619 -8.75566,38.133165 -8.763788,38.122009 -8.767516,38.119539 -8.768954,38.118658 -8.770269,38.117915 -8.762594,38.10258 -8.764955,38.086808 -8.761522,38.076168 -8.773139,38.063451 -8.792625,38.062331 -8.795634,38.063274 -8.797618,38.064611 -8.807963,38.035369 -8.809844,38.03165 -8.838685,37.988631 -8.834329,37.979523 -8.843567,37.966701 -8.83927,37.967083 -8.826572,37.960205 -8.82518,37.958632 -8.823156,37.952964 -8.821166,37.952574 -8.794436,37.93941 -8.793921,37.938827 -8.79316,37.938693 -8.788962,37.933219 -8.784563,37.928243 -8.784696,37.927656 -8.784214,37.927028 -8.767982,37.840874 -8.768115,37.834887 -8.787167,37.752717 -8.783725,37.750811 -8.775489,37.74142 -8.760301,37.745579 -8.754497,37.749655 -8.737057,37.748769 -8.725979,37.738163 -8.725126,37.735872 -8.725918,37.723817 -8.726952,37.721796 -8.726985,37.721775 -8.726579,37.719981 -8.725693,37.719648 -8.722548,37.71575 -8.714622,37.707283 -8.714868,37.706229 -8.713165,37.704117 -8.713076,37.700793 -8.713245,37.700455 -8.704732,37.700252 -8.702261,37.699398 -8.691647,37.691547 -8.689458,37.68 -8.695622,37.671048 -8.691603,37.663183 -8.691599,37.649622 -8.703361,37.639613 -8.720277,37.638779 -8.732844,37.647589 -8.745625,37.668361 -8.746284,37.668404 -8.760792,37.674111 -8.766429,37.68627 -8.766255,37.69406 -8.767058,37.694831 -8.767054,37.694864 -8.76722,37.695027 -8.770587,37.704329 -8.771171,37.70416 -8.773083,37.701178 -8.771335,37.688664 -8.771783,37.682556 -8.795205,37.601342 -8.772343,37.568022 -8.770044,37.562944 -8.764032,37.538508 -8.763899,37.532143 -8.775566,37.473905 -8.775372,37.45118 -8.770992,37.444587 -8.769824,37.429867 -8.782721,37.41905 -8.784255,37.419075 -8.794447,37.393079 -8.796461,37.38939 -8.821644,37.354137 -8.820791,37.351313 -8.810654,37.343343 -8.809711,37.341052 -8.810855,37.32747 -8.815398,37.324074 -8.819671,37.317931 -8.835549,37.313662 -8.850427,37.319259 -8.850786,37.319572 -8.854621,37.315577 -8.853831,37.305671 -8.84345,37.296846 -8.837978,37.27232 -8.839714,37.261478 -8.873236,37.202465 -8.875697,37.199105 -8.881812,37.192444 -8.884249,37.18337 -8.8873,37.181993 -8.882711,37.172088 -8.883026,37.158875 -8.90298,37.119533 -8.906999,37.114283 -8.936901,37.086642 -8.939729,37.068128 -8.945355,37.058071 -8.95769,37.046773 -8.956931,37.045089 -8.957973,37.041765 -8.947087,37.036713 -8.940201,37.029323 -8.930254,37.037633 -8.920415,37.040287 -8.914146,37.050028 -8.893553,37.060138 -8.872302,37.060013 -8.854643,37.073584 -8.839748,37.078718 -8.794511,37.08021 -8.754797,37.09284 -8.736826,37.101704 -8.721445,37.104204 -8.696308,37.100979 -8.69789,37.103097 -8.699841,37.118106 -8.686951,37.129387 -8.668234,37.129046 -8.664112,37.127397 -8.653177,37.132665 -8.651402,37.132939 -8.650949,37.133568 -8.647057,37.15012 -8.639747,37.158194 -8.6389,37.160134 -8.63747,37.160708 -8.635333,37.163069 -8.631155,37.163246 -8.623293,37.166405 -8.617419,37.164805 -8.616905,37.16496 -8.613997,37.163873 -8.610274,37.162859 -8.609968,37.163319 -8.60889,37.16287 -8.608465,37.162372 -8.606106,37.163711 -8.603039,37.163214 -8.594835,37.168125 -8.576767,37.165047 -8.568162,37.151951 -8.567849,37.147325 -8.571221,37.136672 -8.572267,37.135295 -8.568614,37.134193 -8.553411,37.135458 -8.552258,37.145562 -8.548593,37.14932 -8.548809,37.150039 -8.54814,37.150938 -8.548532,37.15276 -8.547538,37.153653 -8.547063,37.156494 -8.545611,37.157345 -8.547536,37.16435 -8.543418,37.179369 -8.526606,37.186799 -8.512934,37.18253 -8.513252,37.184146 -8.510071,37.196698 -8.497485,37.204675 -8.481733,37.204123 -8.471679,37.196149 -8.455905,37.195651 -8.444619,37.18575 -8.445321,37.172106 -8.457608,37.162467 -8.467609,37.159108 -8.473544,37.149345 -8.478205,37.147862 -8.478134,37.147545 -8.485769,37.136631 -8.489109,37.135567 -8.489336,37.135413 -8.491984,37.134651 -8.494261,37.133926 -8.495743,37.132035 -8.501825,37.129531 -8.497573,37.120793 -8.497514,37.119935 -8.435713,37.104062 -8.371626,37.118818 -8.355626,37.117663 -8.346602,37.114028 -8.344254,37.116173 -8.330132,37.118587 -8.328245,37.118407 -8.31223,37.11012 -8.310883,37.108323 -8.309426,37.102158 -8.308025,37.098471 -8.294287,37.092925 -8.284966,37.09562 -8.276276,37.101378 -8.263725,37.101755 -8.259428,37.102996 -8.246263,37.103501 -8.232991,37.100729 -8.185165,37.107979 -8.172006,37.10674 -8.165225,37.104281 -8.165112,37.104777 -8.158708,37.108315 -8.15866,37.108375 -8.156549,37.109678 -8.155063,37.110328 -8.150406,37.1129 -8.147171,37.113439 -8.142698,37.11296 -8.137081,37.11323 -8.135868,37.113005 -8.134365,37.112067 -8.132608,37.111879 -8.128776,37.108579 -8.121497,37.104036 -8.121379,37.102126 -8.118867,37.101312 -8.113217,37.096331 -8.11272,37.096366 -8.099949,37.087813 -8.099418,37.083244 -8.082323,37.078772 -8.076457,37.076394 -8.037506,37.054029 -8.022294,37.057816 -8.017846,37.057143 -8.007935,37.051579 -7.997884,37.052407 -7.99532,37.050721 -7.994593,37.050932 -7.974944,37.049138 -7.968116,37.039478 -7.967767,37.03967 -7.9609,37.041048 -7.958405,37.042749 -7.958234,37.042739 -7.954287,37.045306 -7.953523,37.045441 -7.93943,37.044204 -7.929337,37.036317 -7.928573,37.035104 -7.92854,37.034575 -7.924107,37.031169 -7.922368,37.031624 -7.918867,37.034904 -7.917385,37.035398 -7.910896,37.03516 -7.909077,37.036519 -7.906561,37.037328 -7.897993,37.036812 -7.888908,37.038249 -7.881993,37.0422 -7.879118,37.042739 -7.874573,37.041793 -7.869358,37.043301 -7.868549,37.043301 -7.868263,37.043219 -7.867529,37.043492 -7.862569,37.042173 -7.861203,37.042579 -7.859987,37.042257 -7.859216,37.042778 -7.852948,37.042374 -7.846619,37.042809 -7.845427,37.041975 -7.841117,37.042965 -7.836495,37.042533 -7.835968,37.042887 -7.824036,37.045956 -7.812846,37.055777 -7.7961,37.056757 -7.795247,37.056532 -7.793575,37.055548 -7.791531,37.055619 -7.790183,37.05517 -7.7897,37.054781 -7.786505,37.055601 -7.781307,37.054424 -7.779918,37.054534 -7.779879,37.0541 -7.779548,37.054025 -7.777458,37.054702 -7.774035,37.060263 -7.772643,37.061117 -7.773111,37.06479 -7.772976,37.065374 -7.763513,37.077243 -7.757052,37.078436 -7.7549,37.078942 -7.754759,37.079069 -7.752018,37.079742 -7.75161,37.079713 -7.747788,37.08061 -7.746497,37.080524 -7.74507,37.081212 -7.735283,37.080603 -7.732071,37.082142 -7.731565,37.083132 -7.729634,37.084794 -7.718114,37.089341 -7.713789,37.09447 -7.712801,37.095009 -7.707197,37.096078 -7.705067,37.09761 -7.690173,37.105365 -7.67834,37.112709 -7.672218,37.114933 -7.672123,37.115247 -7.66965,37.116887 -7.671454,37.117642 -7.672577,37.119214 -7.672589,37.11928 -7.673623,37.120386 -7.677138,37.136133 -7.663691,37.148267 -7.663557,37.148312 -7.649318,37.149131 -7.642002,37.145219 -7.637477,37.146673 -7.635952,37.146315 -7.635219,37.147453 -7.634455,37.148127 -7.628347,37.150462 -7.617746,37.15584 -7.603907,37.152257 -7.576859,37.165452 -7.571926,37.167259 -7.552329,37.172286 -7.552081,37.172395 -7.551797,37.172423 -7.550247,37.17282 -7.549522,37.173006 -7.484923,37.189544 -7.484328,37.193653 -7.484917,37.194602 -7.485485,37.205225 -7.486255,37.207393 -7.485216,37.219657 -7.474745,37.228772 -7.46828,37.229534 -7.458355,37.23226 -7.45539,37.23226 -7.45098,37.23109 -7.44972,37.233699 -7.450573,37.234323 -7.457115,37.243309 -7.456254,37.253844 -7.447529,37.27265 -7.462697,37.305872 -7.46213,37.319425 -7.450061,37.329107 -7.43978,37.329343 -7.433044,37.330932 -7.431786,37.330752 -7.43118933415453,37.3304741900184 -7.38402293346282,37.1522777649752 -7.393217,37.146026 -7.410133,37.146954</coordinates></LinearRing></outerBoundaryIs><innerBoundaryIs><LinearRing><coordinates>-8.775783,38.451623 -8.777551,38.454574 -8.779112,38.454238 -8.775783,38.451623</coordinates></LinearRing></innerBoundaryIs><innerBoundaryIs><LinearRing><coordinates>-8.772206,38.445194 -8.772022,38.44534 -8.775239,38.450714 -8.774986,38.448205 -8.772206,38.445194</coordinates></LinearRing></innerBoundaryIs><innerBoundaryIs><LinearRing><coordinates>-8.996778,38.790415 -9.016644,38.800362 -9.024395,38.813135 -9.032735,38.822721 -9.032867,38.822585 -9.055058,38.809435 -9.064037,38.800384 -9.065348,38.799829 -9.066494,38.79436 -9.066926,38.793735 -9.067639,38.759202 -9.069045,38.753237 -9.083877,38.72117 -9.089829,38.714022 -9.117093,38.693589 -9.12489,38.690279 -9.123401,38.687886 -9.123439,38.679386 -9.11904,38.674291 -9.11857,38.67289 -9.113241,38.671205 -9.112862,38.671342 -9.107589,38.671522 -9.101455,38.676231 -9.095387,38.678295 -9.095207,38.679083 -9.083973,38.687148 -9.078943,38.688886 -9.070498,38.698301 -9.068045,38.717031 -9.055124,38.731728 -9.042025,38.736926 -9.034878,38.746175 -9.026478,38.7517 -9.021566,38.754195 -8.966883,38.774934 -8.967446,38.786895 -8.969811,38.790111 -8.996778,38.790415</coordinates></LinearRing></innerBoundaryIs><innerBoundaryIs><LinearRing><coordinates>-8.709653,40.619863 -8.706472,40.620428 -8.708653,40.624447 -8.70858,40.625753 -8.709989,40.627609 -8.71523,40.61659 -8.714716,40.614984 -8.709653,40.619863</coordinates></LinearRing></innerBoundaryIs><innerBoundaryIs><LinearRing><coordinates>-8.756612,41.49367 -8.757734,41.493607 -8.757527,41.492783 -8.756612,41.49367</coordinates></LinearRing></innerBoundaryIs></Polygon><Polygon><outerBoundaryIs><LinearRing><coordinates>-8.595396,38.47739 -8.57777,38.481251 -8.562486,38.473786 -8.561363,38.472483 -8.560546,38.47146 -8.559782,38.470426 -8.557768,38.456085 -8.569742,38.444903 -8.588025,38.444047 -8.591842,38.44517 -8.603563,38.453222 -8.605737,38.465496 -8.597328,38.476177 -8.595396,38.47739</coordinates></LinearRing></outerBoundaryIs></Polygon><Polygon><outerBoundaryIs><LinearRing><coordinates>-9.124048,39.38253 -9.126171,39.370996 -9.136842,39.362683 -9.137875,39.362278 -9.155592,39.361209 -9.168776,39.370201 -9.16936,39.371144 -9.170905,39.383313 -9.162083,39.393636 -9.160781,39.3944 -9.146156,39.398124 -9.13196,39.394005 -9.124362,39.383833 -9.124048,39.38253</coordinates></LinearRing></outerBoundaryIs></Polygon></MultiGeometry>
  </Placemark>
</Folder>
</Document></kml>
