<?xml version="1.0" encoding="utf-8" ?>
<kml xmlns="http://www.opengis.net/kml/2.2">
<Document id="root_doc">
<Schema name="spain_with_canary" id="spain_with_canary">
	<SimpleField name="timestamp" type="string"></SimpleField>
	<SimpleField name="begin" type="string"></SimpleField>
	<SimpleField name="end" type="string"></SimpleField>
	<SimpleField name="altitudeMode" type="string"></SimpleField>
	<SimpleField name="tessellate" type="int"></SimpleField>
	<SimpleField name="extrude" type="int"></SimpleField>
	<SimpleField name="visibility" type="int"></SimpleField>
	<SimpleField name="drawOrder" type="int"></SimpleField>
	<SimpleField name="icon" type="string"></SimpleField>
	<SimpleField name="Name_2" type="string"></SimpleField>
	<SimpleField name="description_2" type="string"></SimpleField>
	<SimpleField name="timestamp_2" type="string"></SimpleField>
	<SimpleField name="begin_2" type="string"></SimpleField>
	<SimpleField name="end_2" type="string"></SimpleField>
	<SimpleField name="altitudeMode_2" type="string"></SimpleField>
	<SimpleField name="tessellate_2" type="int"></SimpleField>
	<SimpleField name="extrude_2" type="int"></SimpleField>
	<SimpleField name="visibility_2" type="int"></SimpleField>
	<SimpleField name="drawOrder_2" type="int"></SimpleField>
	<SimpleField name="icon_2" type="string"></SimpleField>
</Schema>
<Folder><name>spain_with_canary</name>
  <Placemark>
	<name>Spain Border</name>
	<Style><LineStyle><color>ff0000ff</color></LineStyle><PolyStyle><fill>0</fill></PolyStyle></Style>
	<ExtendedData><SchemaData schemaUrl="#spain_with_canary">
		<SimpleData name="tessellate">-1</SimpleData>
		<SimpleData name="extrude">0</SimpleData>
		<SimpleData name="visibility">-1</SimpleData>
		<SimpleData name="Name_2">Islas Canarias Border</SimpleData>
		<SimpleData name="tessellate_2">-1</SimpleData>
		<SimpleData name="extrude_2">0</SimpleData>
		<SimpleData name="visibility_2">-1</SimpleData>
	</SchemaData></ExtendedData>
      <MultiGeometry><Polygon><outerBoundaryIs><LinearRing><coordinates>-18.0465,27.8187 -17.9244,27.8995 -17.8375,27.8244 -17.9644,27.5905 -18.2062,27.6941 -18.1871,27.7974 -18.0465,27.8187</coordinates></LinearRing></outerBoundaryIs></Polygon><Polygon><outerBoundaryIs><LinearRing><coordinates>-14.5491,28.1038 -14.2691,28.244 -14.061,28.74 -13.8876,28.8075 -13.932,28.8927 -13.8589,29.0605 -13.5813,29.1844 -13.5686,29.4341 -13.4711,29.455 -13.4364,29.3975 -13.4904,29.3468 -13.3736,29.2175 -13.4003,29.0706 -13.4571,28.9507 -13.7684,28.7913 -13.8,28.3921 -13.8786,28.2198 -14.1935,28.1196 -14.321,27.9967 -14.5369,28.0233 -14.5491,28.1038</coordinates></LinearRing></outerBoundaryIs></Polygon><Polygon><outerBoundaryIs><LinearRing><coordinates>-13.312,29.2323 -13.3829,29.2525 -13.3628,29.3205 -13.2923,29.3046 -13.312,29.2323</coordinates></LinearRing></outerBoundaryIs></Polygon><Polygon><outerBoundaryIs><LinearRing><coordinates>-15.7508,28.1364 -15.7153,28.2149 -15.368,28.2033 -15.3079,27.9258 -15.3861,27.7743 -15.607,27.6845 -15.8256,27.8011 -15.8825,27.9831 -15.7508,28.1364</coordinates></LinearRing></outerBoundaryIs></Polygon><Polygon><outerBoundaryIs><LinearRing><coordinates>-17.3697,28.0503 -17.3956,28.1604 -17.3351,28.2485 -17.175,28.2451 -17.0549,28.1441 -17.1532,27.9872 -17.2872,27.9776 -17.3697,28.0503</coordinates></LinearRing></outerBoundaryIs></Polygon><Polygon><outerBoundaryIs><LinearRing><coordinates>-16.277,28.3701 -16.3907,28.1128 -16.5186,27.983 -16.6442,27.9535 -16.7368,27.9684 -16.974,28.336 -16.8527,28.4395 -16.5293,28.4693 -16.333,28.6282 -16.1047,28.6216 -16.0823,28.506 -16.277,28.3701</coordinates></LinearRing></outerBoundaryIs></Polygon><Polygon><outerBoundaryIs><LinearRing><coordinates>-17.9529,28.8963 -17.7536,28.883 -17.6767,28.7595 -17.7136,28.55 -17.8309,28.4035 -17.9103,28.4454 -18.057,28.7325 -17.9529,28.8963</coordinates></LinearRing></outerBoundaryIs></Polygon></MultiGeometry>
  </Placemark>
  <Placemark>
	<name>Spain Border</name>
	<Style><LineStyle><color>ff0000ff</color></LineStyle><PolyStyle><fill>0</fill></PolyStyle></Style>
	<ExtendedData><SchemaData schemaUrl="#spain_with_canary">
		<SimpleData name="tessellate">-1</SimpleData>
		<SimpleData name="extrude">0</SimpleData>
		<SimpleData name="visibility">-1</SimpleData>
	</SchemaData></ExtendedData>
      <MultiGeometry><Polygon><outerBoundaryIs><LinearRing><coordinates>-4.2985,35.1705 -4.3154,35.1901 -4.3231,35.2179 -4.3049,35.1971 -4.2985,35.1705</coordinates></LinearRing></outerBoundaryIs></Polygon><Polygon><outerBoundaryIs><LinearRing><coordinates>-2.3696,35.178 -2.4633,35.1545 -2.4951,35.1772 -2.4214,35.2354 -2.3696,35.178</coordinates></LinearRing></outerBoundaryIs></Polygon><Polygon><outerBoundaryIs><LinearRing><coordinates>-2.954,35.3228 -2.9073,35.3469 -2.8827,35.3195 -2.9368,35.2803 -2.954,35.3228</coordinates></LinearRing></outerBoundaryIs></Polygon><Polygon><outerBoundaryIs><LinearRing><coordinates>-3.8987,35.2136 -3.8959,35.2407 -3.8648,35.2538 -3.8776,35.2282 -3.8987,35.2136</coordinates></LinearRing></outerBoundaryIs></Polygon><Polygon><outerBoundaryIs><LinearRing><coordinates>0.6194,39.8766 0.6768,39.9496 0.7377,39.9121 0.6811,39.825 0.6194,39.8766</coordinates></LinearRing></outerBoundaryIs></Polygon><Polygon><outerBoundaryIs><LinearRing><coordinates>1.2173,38.8157 1.1427,38.8406 1.1366,39.027 1.527,39.1683 1.6912,39.0631 1.6876,38.9978 1.4771,38.8553 1.5293,38.7296 1.6155,38.714 1.6109,38.6191 1.36,38.5977 1.3699,38.776 1.2173,38.8157</coordinates></LinearRing></outerBoundaryIs></Polygon><Polygon><outerBoundaryIs><LinearRing><coordinates>3.7741,39.954 3.7412,40.0228 3.7994,40.0957 4.0819,40.1444 4.3054,40.0319 4.3776,39.8691 4.2788,39.7508 3.9588,39.8858 3.7986,39.8803 3.7741,39.954</coordinates></LinearRing></outerBoundaryIs></Polygon><Polygon><outerBoundaryIs><LinearRing><coordinates>2.5739,39.4601 2.4519,39.4155 2.2664,39.5372 2.2627,39.6036 2.9365,39.9676 3.2297,40.0095 3.2097,39.8026 3.3622,39.8374 3.5281,39.7254 3.2729,39.332 3.0278,39.2203 2.9726,39.0764 2.8902,39.0882 2.8667,39.1654 2.9931,39.256 2.7602,39.3205 2.6696,39.505 2.5739,39.4601</coordinates></LinearRing></outerBoundaryIs></Polygon><Polygon><outerBoundaryIs><LinearRing><coordinates>2.0051,42.448 1.9569,42.4581 1.9804,42.4944 1.9967,42.4867 2.0051,42.448</coordinates></LinearRing></outerBoundaryIs></Polygon><Polygon><outerBoundaryIs><LinearRing><coordinates>-5.4211,35.91 -5.4379,35.9422 -5.4287,35.9652 -5.4129,35.9235 -5.4211,35.91</coordinates></LinearRing></outerBoundaryIs></Polygon><Polygon><outerBoundaryIs><LinearRing><coordinates>-3.0466,35.9899 -2.9807,35.9503 -3.0256,35.8883 -3.0866,35.9296 -3.0466,35.9899</coordinates></LinearRing></outerBoundaryIs></Polygon><Polygon><outerBoundaryIs><LinearRing><coordinates>-5.3807,35.8995 -5.3618,35.968 -5.2282,35.8973 -5.3024,35.8354 -5.3807,35.8995</coordinates></LinearRing></outerBoundaryIs></Polygon><Polygon><outerBoundaryIs><LinearRing><coordinates>-3.14575653035697,43.4031214990859 -2.7542,43.5067 -2.2916,43.3455 -1.7827,43.4426 -1.7289,43.2961 -1.3842,43.2532 -1.4734,43.0866 -1.4414,43.0462 -1.3537,43.028 -1.3321,43.1079 -1.2705,43.1183 -1.3085,43.0692 -1.1414,43.0076 -0.7528,42.967 -0.5677,42.7809 -0.313,42.8475 -0.0146,42.6848 0.176,42.7356 0.295,42.6734 0.3604,42.7237 0.6687,42.6889 0.6449,42.7831 0.7082,42.8613 1.078,42.7877 1.1707,42.7082 1.3574,42.7194 1.442,42.5993 1.4566,42.4359 1.7263,42.5049 1.9338,42.4542 2.0152,42.3474 2.2571,42.4385 2.5333,42.3335 2.9471,42.4818 3.3602,42.3586 3.3708,42.3021 3.2931,42.196 3.165,42.1942 3.279,42.0503 3.2164,41.8207 2.2939,41.4157 2.1286,41.2418 0.992,40.9851 0.8129,40.8212 0.9284,40.7215 0.8783,40.6398 0.6869,40.5132 0.5741,40.5277 0.4468,40.3253 0.0873,39.9979 -0.2684,39.5054 -0.2707,39.3952 -0.1463,39.0655 -0.0147,38.9225 0.2288,38.8438 0.2847,38.7325 -0.1077,38.4556 -0.2719,38.4402 -0.37,38.3143 -0.4622,38.2951 -0.4099,38.1395 -0.571,38.1412 -0.6027,37.9771 -0.7149,37.8494 -0.6179,37.6158 -0.9147,37.504 -1.311,37.5114 -1.6421,37.3146 -1.7595,37.1947 -1.8566,36.9167 -2.11,36.6838 -2.202,36.6721 -2.3565,36.7881 -2.5342,36.77 -2.699,36.6324 -3.1184,36.7019 -3.4845,36.6469 -3.749,36.6711 -3.7865,36.7239 -4.3936,36.6674 -4.6184,36.4607 -4.919,36.4514 -5.1509,36.3707 -5.288,36.1511 -5.3988,36.1426 -5.3958,36.0346 -5.6127,35.9496 -5.9288,36.1326 -6.0639,36.14 -6.26,36.3463 -6.35,36.5665 -6.5186,36.7136 -6.4435,36.7948 -6.5496,36.9357 -7.0499,37.1578 -7.3719,37.1227 -7.5227,37.5531 -7.2624,37.9799 -7.002,38.0224 -6.9315,38.2083 -7.0854,38.1693 -7.3359,38.4358 -7.2436,38.624 -7.2594,38.7242 -7.0392,38.8648 -6.9594,39.0545 -7.144,39.1086 -7.1345,39.171 -7.2415,39.2083 -7.3228,39.3813 -7.2943,39.4568 -7.5417,39.6637 -7.0155,39.6704 -6.8638,40.012 -7.03,40.1864 -6.781,40.3643 -6.8497,40.4515 -6.7953,40.5114 -6.8454,40.5659 -6.8019,40.8607 -6.9313,41.0294 -6.8089,41.0365 -6.6483,41.2476 -6.4963,41.2661 -6.3176,41.3857 -6.1891,41.5748 -6.3023,41.6618 -6.5483,41.6856 -6.5155,41.8716 -6.5883,41.9675 -6.7,41.9333 -6.8113,41.9925 -6.8932,41.9398 -7.1414,41.9907 -7.1967,41.88 -7.4276,41.8074 -7.4525,41.8651 -7.6114,41.8292 -7.5858,41.8819 -7.7008,41.9077 -7.8728,41.8449 -7.9063,41.9271 -8.014,41.829 -8.165,41.8181 -8.2168,41.9135 -8.0844,42.0473 -8.182,42.065 -8.1987,42.1543 -8.6359,42.0479 -8.9217,41.8531 -8.9724,42.424 -9.1244,42.4943 -9.1044,42.6877 -9.1859,42.7038 -9.2319,42.8544 -9.315,42.8514 -9.3419,43.0839 -9.2015,43.2337 -9.0764,43.2388 -8.866,43.4069 -8.7162,43.341 -8.5438,43.3667 -8.3863,43.4384 -8.3448,43.6098 -7.9236,43.8158 -7.8132,43.7788 -7.6835,43.8412 -7.5791,43.7685 -7.4127,43.762 -7.2187,43.6182 -6.0851,43.6153 -5.8357,43.7111 -5.6447,43.6011 -4.5126,43.4269 -3.5863,43.5649 -3.14575653035697,43.4031214990859</coordinates></LinearRing></outerBoundaryIs></Polygon></MultiGeometry>
  </Placemark>
  <Placemark>
	<Style><LineStyle><color>ff0000ff</color></LineStyle><PolyStyle><fill>0</fill></PolyStyle></Style>
	<ExtendedData><SchemaData schemaUrl="#spain_with_canary">
		<SimpleData name="Name_2">Islas Canarias Border</SimpleData>
		<SimpleData name="tessellate_2">-1</SimpleData>
		<SimpleData name="extrude_2">0</SimpleData>
		<SimpleData name="visibility_2">-1</SimpleData>
	</SchemaData></ExtendedData>
      <MultiGeometry><Polygon><outerBoundaryIs><LinearRing><coordinates>-13.4925808205546,29.7879733069553 -12.9240115483046,29.5693825620597 -13.7950718942534,27.7791811117941 -15.5322032658994,27.4797730330404 -16.5576242616097,27.5425275763394 -16.593552501414,27.5751229799389 -17.3299292999831,27.465522022651 -18.1254479225962,27.3355207850457 -18.1402782306866,27.3418914973458 -18.7134001940229,27.9094967349357 -18.5457185157054,29.0298163932496 -17.608610372058,29.3866480080996 -16.7404546993823,28.8859424875615 -15.8444653159258,29.0874602235291 -15.3524459253353,28.7839187222004 -14.8035204554982,28.7851514054789 -13.4925808205546,29.7879733069553</coordinates></LinearRing></outerBoundaryIs><innerBoundaryIs><LinearRing><coordinates>-17.8375,27.8244 -17.9244,27.8995 -18.0465,27.8187 -18.1871,27.7974 -18.2062,27.6941 -17.9644,27.5905 -17.8375,27.8244</coordinates></LinearRing></innerBoundaryIs><innerBoundaryIs><LinearRing><coordinates>-15.368,28.2033 -15.7153,28.2149 -15.7508,28.1364 -15.8825,27.9831 -15.8256,27.8011 -15.607,27.6845 -15.3861,27.7743 -15.3079,27.9258 -15.368,28.2033</coordinates></LinearRing></innerBoundaryIs><innerBoundaryIs><LinearRing><coordinates>-17.3351,28.2485 -17.3956,28.1604 -17.3697,28.0503 -17.2872,27.9776 -17.1532,27.9872 -17.0549,28.1441 -17.175,28.2451 -17.3351,28.2485</coordinates></LinearRing></innerBoundaryIs><innerBoundaryIs><LinearRing><coordinates>-16.6442,27.9535 -16.5186,27.983 -16.3907,28.1128 -16.277,28.3701 -16.0823,28.506 -16.1047,28.6216 -16.333,28.6282 -16.5293,28.4693 -16.8527,28.4395 -16.974,28.336 -16.7368,27.9684 -16.6442,27.9535</coordinates></LinearRing></innerBoundaryIs><innerBoundaryIs><LinearRing><coordinates>-17.7136,28.55 -17.6767,28.7595 -17.7536,28.883 -17.9529,28.8963 -18.057,28.7325 -17.9103,28.4454 -17.8309,28.4035 -17.7136,28.55</coordinates></LinearRing></innerBoundaryIs><innerBoundaryIs><LinearRing><coordinates>-14.061,28.74 -14.2691,28.244 -14.5491,28.1038 -14.5369,28.0233 -14.321,27.9967 -14.1935,28.1196 -13.8786,28.2198 -13.8,28.3921 -13.7684,28.7913 -13.4571,28.9507 -13.4003,29.0706 -13.3736,29.2175 -13.4904,29.3468 -13.4364,29.3975 -13.4711,29.455 -13.5686,29.4341 -13.5813,29.1844 -13.8589,29.0605 -13.932,28.8927 -13.8876,28.8075 -14.061,28.74</coordinates></LinearRing></innerBoundaryIs><innerBoundaryIs><LinearRing><coordinates>-13.3628,29.3205 -13.3829,29.2525 -13.312,29.2323 -13.2923,29.3046 -13.3628,29.3205</coordinates></LinearRing></innerBoundaryIs></Polygon></MultiGeometry>
  </Placemark>
</Folder>
</Document></kml>
